NORAD_CAT_ID,OBJECT_NAME,OBJECT_TYPE,EPOCH,MEAN_MOTION,ECCENTRICITY,INCLINATION,RA_OF_ASC_NODE,ARG_OF_PERICENTER,MEAN_ANOMALY,BSTAR,MEAN_MOTION_DOT,MEAN_MOTION_DDOT,TLE_LINE0,TLE_LINE1,TLE_LINE2,SEMIMAJOR_AXIS,PERIOD,APOGEE,PERIGEE,DECAYED
54781.0,STARLINK-5443,PAYLOAD,2024-05-04 12:40:05,15.08832741,0.0001259,53.2153,175.568,95.0671,265.0465,-2.8283e-05,-7.38e-06,0.0,0 STARLINK-5443,1 54781U 22175Z   24125.52784378 -.00000738  00000-0 -28283-4 0  9997,2 54781  53.2153 175.5680 0001259  95.0671 265.0465 15.08832741 76193,6917.903,95.438,540.639,538.897,0.0
54781.0,STARLINK-5443,PAYLOAD,2024-05-05 12:30:53,15.08832542,0.0001073,53.2149,171.1151,110.5255,249.5853,-7.4747e-05,-1.477e-05,0.0,0 STARLINK-5443,1 54781U 22175Z   24126.52144821 -.00001477  00000-0 -74747-4 0  9998,2 54781  53.2149 171.1151 0001073 110.5255 249.5853 15.08832542 78502,6917.903,95.438,540.51,539.026,0.0
54781.0,STARLINK-5443,PAYLOAD,2024-05-05 20:27:49,15.08826769,8.67e-05,53.2137,169.6248,78.37,281.7389,-0.00010452,-1.95e-05,0.0,0 STARLINK-5443,1 54781U 22175Z   24126.85265429 -.00001950  00000-0 -10452-3 0  9990,2 54781  53.2137 169.6248 0000867  78.3700 281.7389 15.08826769 76395,6917.921,95.438,540.386,539.186,0.0
54781.0,STARLINK-5443,PAYLOAD,2024-05-06 02:49:22,15.08821578,0.0001017,53.215,168.4351,74.8535,285.2569,6.0827e-05,6.8e-06,0.0,0 STARLINK-5443,1 54781U 22175Z   24127.11762368  .00000680  00000-0  60827-4 0  9993,2 54781  53.2150 168.4351 0001017  74.8535 285.2569 15.08821578 76434,6917.937,95.439,540.505,539.098,0.0
54781.0,STARLINK-5443,PAYLOAD,2024-05-06 09:10:54,15.08829301,9.01e-05,53.216,167.2432,86.3542,273.7554,0.00012131,1.643e-05,0.0,0 STARLINK-5443,1 54781U 22175Z   24127.38257855  .00001643  00000-0  12131-3 0  9996,2 54781  53.2160 167.2432 0000901  86.3542 273.7554 15.08829301 76471,6917.913,95.438,540.401,539.155,0.0
54781.0,STARLINK-5443,PAYLOAD,2024-05-07 12:12:27,15.0885556,0.0001315,53.2143,162.1867,93.8683,266.2459,0.00060938,9.428e-05,0.0,0 STARLINK-5443,1 54781U 22175Z   24128.50865347  .00009428  00000-0  60938-3 0  9999,2 54781  53.2143 162.1867 0001315  93.8683 266.2459 15.08855560 76643,6917.833,95.437,540.608,538.788,0.0
54781.0,STARLINK-5443,PAYLOAD,2024-05-08 02:30:55,15.08856046,0.0001452,53.2146,159.5095,97.3273,262.7884,0.00032016,4.813e-05,0.0,0 STARLINK-5443,1 54781U 22175Z   24129.10480884  .00004813  00000-0  32016-3 0  9994,2 54781  53.2146 159.5095 0001452  97.3273 262.7884 15.08856046 76738,6917.831,95.437,540.701,538.692,0.0
54781.0,STARLINK-5443,PAYLOAD,2024-05-08 10:27:51,15.08845404,0.0001203,53.214,158.0235,88.9183,271.1947,-3.8499e-05,-9.01e-06,0.0,0 STARLINK-5443,1 54781U 22175Z   24129.43601049 -.00000901  00000-0 -38499-4 0  9996,2 54781  53.2140 158.0235 0001203  88.9183 271.1947 15.08845404 76787,6917.864,95.437,540.561,538.897,0.0
54781.0,STARLINK-5443,PAYLOAD,2024-05-08 18:24:47,15.08843098,0.0001243,53.2144,156.5374,91.2315,268.882,-2.2089e-05,-6.39e-06,0.0,0 STARLINK-5443,1 54781U 22175Z   24129.76721140 -.00000639  00000-0 -22089-4 0  9993,2 54781  53.2144 156.5374 0001243  91.2315 268.8820 15.08843098 78991,6917.871,95.437,540.596,538.876,0.0
54781.0,STARLINK-5443,PAYLOAD,2024-05-09 08:43:14,15.0885014,0.0001282,53.2138,153.8596,86.9552,273.1587,1.3827e-06,-2.66e-06,0.0,0 STARLINK-5443,1 54781U 22175Z   24130.36336727 -.00000266  00000-0  13827-5 0  9990,2 54781  53.2138 153.8596 0001282  86.9552 273.1587 15.08850140 79083,6917.849,95.437,540.601,538.828,0.0
54781.0,STARLINK-5443,PAYLOAD,2024-05-09 18:15:33,15.088531,0.0001259,53.2139,152.0756,87.9111,272.2025,0.00013139,1.805e-05,0.0,0 STARLINK-5443,1 54781U 22175Z   24130.76080406  .00001805  00000-0  13139-3 0  9997,2 54781  53.2139 152.0756 0001259  87.9111 272.2025 15.08853100 76981,6917.84,95.437,540.576,538.834,0.0
54781.0,STARLINK-5443,PAYLOAD,2024-05-10 10:09:26,15.08831311,0.0001405,53.2174,149.108,89.3898,270.7255,0.00012958,1.774e-05,0.0,0 STARLINK-5443,1 54781U 22175Z   24131.42321932  .00001774  00000-0  12958-3 0  9996,2 54781  53.2174 149.1080 0001405  89.3898 270.7255 15.08831311 77088,6917.907,95.438,540.744,538.8,0.0
54781.0,STARLINK-5443,PAYLOAD,2024-05-10 18:06:21,15.08837555,0.0001523,53.217,147.6206,99.2239,260.8925,0.00015871,2.239e-05,0.0,0 STARLINK-5443,1 54781U 22175Z   24131.75441564  .00002239  00000-0  15871-3 0  9990,2 54781  53.2170 147.6206 0001523  99.2239 260.8925 15.08837555 79292,6917.888,95.438,540.806,538.699,0.0
54781.0,STARLINK-5443,PAYLOAD,2024-05-11 10:00:11,15.08888858,0.0001495,53.2146,144.64,91.9233,268.193,0.0011279,0.00017732,0.0,0 STARLINK-5443,1 54781U 22175Z   24132.41679747  .00017732  00000-0  11279-2 0  9991,2 54781  53.2146 144.6400 0001495  91.9233 268.1930 15.08888858 77230,6917.731,95.434,540.63,538.562,0.0
54781.0,STARLINK-5443,PAYLOAD,2024-05-11 17:57:06,15.08892347,0.0002051,53.2153,143.1546,64.2713,295.8491,0.0013643,0.00021523,0.0,0 STARLINK-5443,1 54781U 22175Z   24132.74799144  .00021523  00000-0  13643-2 0  9991,2 54781  53.2153 143.1546 0002051  64.2713 295.8491 15.08892347 77280,6917.72,95.434,541.004,538.167,0.0
54781.0,STARLINK-5443,PAYLOAD,2024-05-12 05:04:49,15.08808436,0.000167,53.2141,141.0721,76.6282,283.4896,-0.0014592,-0.00023416,0.0,0 STARLINK-5443,1 54781U 22175Z   24133.21168622 -.00023416  00000-0 -14592-2 0  9994,2 54781  53.2141 141.0721 0001670  76.6282 283.4896 15.08808436 77359,6917.977,95.44,540.997,538.687,0.0
54781.0,STARLINK-5443,PAYLOAD,2024-05-12 13:01:46,15.08776415,0.0001572,53.2141,139.5866,65.7935,294.3222,0.00073912,0.00011474,0.0,0 STARLINK-5443,1 54781U 22175Z   24133.54290285  .00011474  00000-0  73912-3 0  9992,2 54781  53.2141 139.5866 0001572  65.7935 294.3222 15.08776415 79566,6918.075,95.442,541.027,538.852,0.0
54781.0,STARLINK-5443,PAYLOAD,2024-05-12 17:47:56,15.0878692,0.0001563,53.2142,138.6945,67.0666,293.0491,0.00098419,0.00015387,0.0,0 STARLINK-5443,1 54781U 22175Z   24133.74162929  .00015387  00000-0  98419-3 0  9993,2 54781  53.2142 138.6945 0001563  67.0666 293.0491 15.08786920 79590,6918.043,95.441,540.989,538.826,0.0
54781.0,STARLINK-5443,PAYLOAD,2024-05-13 04:55:38,15.08850488,0.0001907,53.2154,136.6127,62.4165,297.7021,0.0020375,0.00032297,0.0,0 STARLINK-5443,1 54781U 22175Z   24134.20530385  .00032297  00000-0  20375-2 0  9994,2 54781  53.2154 136.6127 0001907  62.4165 297.7021 15.08850488 77508,6917.848,95.437,541.033,538.394,0.0
54781.0,STARLINK-5443,PAYLOAD,2024-05-13 06:31:01,15.08866963,0.0001617,53.2156,136.3153,62.1726,297.943,0.0019032,0.00030154,0.0,0 STARLINK-5443,1 54781U 22175Z   24134.27153982  .00030154  00000-0  19032-2 0  9993,2 54781  53.2156 136.3153 0001617  62.1726 297.9430 15.08866963 77516,6917.798,95.436,540.782,538.544,0.0
54781.0,STARLINK-5443,PAYLOAD,2024-05-13 17:38:42,15.08875537,0.0001568,53.2151,134.2328,62.8584,297.2568,0.0010604,0.00016645,0.0,0 STARLINK-5443,1 54781U 22175Z   24134.73520938  .00016645  00000-0  10604-2 0  9998,2 54781  53.2151 134.2328 0001568  62.8584 297.2568 15.08875537 77585,6917.772,95.435,540.721,538.552,0.0
54781.0,STARLINK-5443,PAYLOAD,2024-05-14 04:46:23,15.08846099,0.0001434,53.2149,132.1519,62.1117,298.002,-0.0006063,-9.926e-05,0.0,0 STARLINK-5443,1 54781U 22175Z   24135.19888794 -.00009926  00000-0 -60630-3 0  9997,2 54781  53.2149 132.1519 0001434  62.1117 298.0020 15.08846099 77659,6917.862,95.437,540.719,538.735,0.0
54781.0,STARLINK-5443,PAYLOAD,2024-05-14 06:21:47,15.08844716,0.000146,53.2151,131.8546,63.2203,296.8939,-0.00053004,-8.715e-05,0.0,0 STARLINK-5443,1 54781U 22175Z   24135.26512806 -.00008715  00000-0 -53004-3 0  9995,2 54781  53.2151 131.8546 0001460  63.2203 296.8939 15.08844716 79825,6917.866,95.437,540.741,538.721,0.0
54781.0,STARLINK-5443,PAYLOAD,2024-05-15 09:23:20,15.08846812,0.000154,53.2157,126.799,67.2773,292.8382,0.0002254,3.302e-05,0.0,0 STARLINK-5443,1 54781U 22175Z   24136.39121225  .00003302  00000-0  22540-3 0  9997,2 54781  53.2157 126.7990 0001540  67.2773 292.8382 15.08846812 77838,6917.86,95.437,540.79,538.659,0.0
54781.0,STARLINK-5443,PAYLOAD,2024-05-16 04:27:59,15.08829878,0.0001519,53.2153,123.2306,68.075,292.0404,5.548e-05,5.95e-06,0.0,0 STARLINK-5443,1 54781U 22175Z   24137.18610247  .00000595  00000-0  55480-4 0  9993,2 54781  53.2153 123.2306 0001519  68.0750 292.0404 15.08829878 77950,6917.911,95.438,540.827,538.725,0.0
54781.0,STARLINK-5443,PAYLOAD,2024-05-16 09:14:08,15.08834373,0.0001403,53.2155,122.3387,74.3589,285.7558,0.0001357,1.872e-05,0.0,0 STARLINK-5443,1 54781U 22175Z   24137.38482206  .00001872  00000-0  13570-3 0  9999,2 54781  53.2155 122.3387 0001403  74.3589 285.7558 15.08834373 80143,6917.898,95.438,540.733,538.792,0.0
54781.0,STARLINK-5443,PAYLOAD,2024-05-16 15:35:40,15.08844501,0.0001419,53.2162,121.1499,79.2675,280.8477,0.00025642,3.796e-05,0.0,0 STARLINK-5443,1 54781U 22175Z   24137.64977778  .00003796  00000-0  25642-3 0  9991,2 54781  53.2162 121.1499 0001419  79.2675 280.8477 15.08844501 78023,6917.867,95.437,540.713,538.75,0.0
54781.0,STARLINK-5443,PAYLOAD,2024-05-17 05:54:08,15.0885902,0.0001334,53.2156,118.4739,83.5837,276.5307,0.00057025,8.804e-05,0.0,0 STARLINK-5443,1 54781U 22175Z   24138.24593251  .00008804  00000-0  57025-3 0  9993,2 54781  53.2156 118.4739 0001334  83.5837 276.5307 15.08859020 80272,6917.822,95.436,540.61,538.764,0.0
54781.0,STARLINK-5443,PAYLOAD,2024-05-17 15:26:26,15.0886643,0.0001288,53.2151,116.6896,86.8866,273.2274,0.0005896,9.115e-05,0.0,0 STARLINK-5443,1 54781U 22175Z   24138.64336660  .00009115  00000-0  58960-3 0  9991,2 54781  53.2151 116.6896 0001288  86.8866 273.2274 15.08866430 78173,6917.8,95.436,540.556,538.774,0.0
54781.0,STARLINK-5443,PAYLOAD,2024-05-18 04:09:32,15.08838401,0.0001505,53.2155,114.311,100.4265,259.6897,-0.00012652,-2.301e-05,0.0,0 STARLINK-5443,1 54781U 22175Z   24139.17329163 -.00002301  00000-0 -12652-3 0  9990,2 54781  53.2155 114.3110 0001505 100.4265 259.6897 15.08838401 78254,6917.885,95.438,540.791,538.709,0.0
